[{"OBJECT_NAME":"STARLINK-2128","OBJECT_ID":"2021-005BH","EPOCH":"2026-03-09T22:00:01.999584","MEAN_MOTION":15.60188382,"ECCENTRICITY":0.00044922,"INCLINATION":53.0533,"RA_OF_ASC_NODE":14.9701,"ARG_OF_PERICENTER":123.8508,"MEAN_ANOMALY":68.763,"EPHEMERIS_TYPE":0,"CLASSIFICATION_TYPE":"U","NORAD_CAT_ID":47404,"ELEMENT_SET_NO":999,"REV_AT_EPOCH":592,"BSTAR":0.0018166988,"MEAN_MOTION_DOT":0.00153048,"MEAN_MOTION_DDOT":0},{"OBJECT_NAME":"OBJECT C","OBJECT_ID":"2024-024C","EPOCH":"2026-03-09T23:05:51.559584","MEAN_MOTION":15.59218925,"ECCENTRICITY":0.00024071,"INCLINATION":97.3212,"RA_OF_ASC_NODE":154.3938,"ARG_OF_PERICENTER":211.7336,"MEAN_ANOMALY":148.3776,"EPHEMERIS_TYPE":0,"CLASSIFICATION_TYPE":"U","NORAD_CAT_ID":58919,"ELEMENT_SET_NO":999,"REV_AT_EPOCH":11733,"BSTAR":0.0012034335,"MEAN_MOTION_DOT":0.00095223,"MEAN_MOTION_DDOT":0}]
